E-SPACE_L_00012030-53
1 20492U 26134SR  26075.70005787  .00000000  00000+0  00000-0 0  9996
2 20492  54.0000 290.0000 0000000   0.0000  55.2222 14.93221018    19
E-SPACE_L_00012030-54
1 20493U 23574HB  26075.70005787  .00000000  00000+0  00000-0 0  9992
2 20493  54.0000 290.0000 0000000   0.0000  56.2222 14.93221018    11
E-SPACE_L_00012030-55
1 20494U 25777ET  26075.70005787  .00000000  00000+0  00000-0 0  9990
2 20494  54.0000 290.0000 0000000   0.0000  57.2222 14.93221018    13
E-SPACE_L_00012030-56
1 20495U 23162RE  26075.70005787  .00000000  00000+0  00000-0 0  9997
2 20495  54.0000 290.0000 0000000   0.0000  58.2222 14.93221018    15
E-SPACE_L_00012030-57
1 20496U 23027ER  26075.70005787  .00000000  00000+0  00000-0 0  9998
2 20496  54.0000 290.0000 0000000   0.0000  59.2222 14.93221018    17
E-SPACE_L_00012030-58
1 20497U 24940T   26075.70005787  .00000000  00000+0  00000-0 0  9994
2 20497  54.0000 290.0000 0000000   0.0000  60.2222 14.93221018    10
E-SPACE_L_00012030-59
1 20498U 25311UO  26075.70005787  .00000000  00000+0  00000-0 0  9998
2 20498  54.0000 290.0000 0000000   0.0000  61.2222 14.93221018    12
E-SPACE_L_00012030-60
1 20499U 24605IX  26075.70005787  .00000000  00000+0  00000-0 0  9994
2 20499  54.0000 290.0000 0000000   0.0000  62.2222 14.93221018    14
E-SPACE_L_00012030-61
1 20500U 24689XA  26075.70005787  .00000000  00000+0  00000-0 0  9999
2 20500  54.0000 290.0000 0000000   0.0000  63.2222 14.93221018    18
E-SPACE_L_00012030-62
1 20501U 25080DY  26075.70005787  .00000000  00000+0  00000-0 0  9996
2 20501  54.0000 290.0000 0000000   0.0000  64.2222 14.93221018    10
E-SPACE_L_00012030-63
1 20502U 22904SW  26075.70005787  .00000000  00000+0  00000-0 0  9999
2 20502  54.0000 290.0000 0000000   0.0000  65.2222 14.93221018    12
E-SPACE_L_00012030-64
1 20503U 26515YC  26075.70005787  .00000000  00000+0  00000-0 0  9992
2 20503  54.0000 290.0000 0000000   0.0000  66.2222 14.93221018    14
E-SPACE_L_00012030-65
1 20504U 26055QY  26075.70005787  .00000000  00000+0  00000-0 0  9992
2 20504  54.0000 290.0000 0000000   0.0000  67.2222 14.93221018    16
E-SPACE_L_00012030-66
1 20505U 22269ZW  26075.70005787  .00000000  00000+0  00000-0 0  9996
2 20505  54.0000 290.0000 0000000   0.0000  68.2222 14.93221018    18
E-SPACE_L_00012030-67
1 20506U 23328ZW  26075.70005787  .00000000  00000+0  00000-0 0  9994
2 20506  54.0000 290.0000 0000000   0.0000  69.2222 14.93221018    10
E-SPACE_L_00012030-68
1 20507U 24520NM  26075.70005787  .00000000  00000+0  00000-0 0  9990
2 20507  54.0000 290.0000 0000000   0.0000  70.2222 14.93221018    13
E-SPACE_L_00012030-69
1 20508U 23281VW  26075.70005787  .00000000  00000+0  00000-0 0  9994
2 20508  54.0000 290.0000 0000000   0.0000  71.2222 14.93221018    15
E-SPACE_L_00012030-70
1 20509U 25842FA  26075.70005787  .00000000  00000+0  00000-0 0  9990
2 20509  54.0000 290.0000 0000000   0.0000  72.2222 14.93221018    17
E-SPACE_L_00012030-71
1 20510U 25679HB  26075.70005787  .00000000  00000+0  00000-0 0  9990
2 20510  54.0000 290.0000 0000000   0.0000  73.2222 14.93221018    10
E-SPACE_L_00012030-72
1 20511U 26945OY  26075.70005787  .00000000  00000+0  00000-0 0  9998
2 20511  54.0000 290.0000 0000000   0.0000  74.2222 14.93221018    12
E-SPACE_L_00012030-73
1 20512U 26448NS  26075.70005787  .00000000  00000+0  00000-0 0  9997
2 20512  54.0000 290.0000 0000000   0.0000  75.2222 14.93221018    14
E-SPACE_L_00012030-74
1 20513U 26671DD  26075.70005787  .00000000  00000+0  00000-0 0  9996
2 20513  54.0000 290.0000 0000000   0.0000  76.2222 14.93221018    16
E-SPACE_L_00012030-75
1 20514U 22876YQ  26075.70005787  .00000000  00000+0  00000-0 0  9990
2 20514  54.0000 290.0000 0000000   0.0000  77.2222 14.93221018    18
E-SPACE_L_00012030-76
1 20515U 22849GO  26075.70005787  .00000000  00000+0  00000-0 0  9991
2 20515  54.0000 290.0000 0000000   0.0000  78.2222 14.93221018    10
E-SPACE_L_00012030-77
1 20516U 22187HJ  26075.70005787  .00000000  00000+0  00000-0 0  9997
2 20516  54.0000 290.0000 0000000   0.0000  79.2222 14.93221018    12
E-SPACE_L_00012030-78
1 20517U 26051XM  26075.70005787  .00000000  00000+0  00000-0 0  9992
2 20517  54.0000 290.0000 0000000   0.0000  80.2222 14.93221018    15
E-SPACE_L_00012030-79
1 20518U 25205GW  26075.70005787  .00000000  00000+0  00000-0 0  9993
2 20518  54.0000 290.0000 0000000   0.0000  81.2222 14.93221018    17
E-SPACE_L_00012030-80
1 20519U 23594WU  26075.70005787  .00000000  00000+0  00000-0 0  9993
2 20519  54.0000 290.0000 0000000   0.0000  82.2222 14.93221018    19
E-SPACE_L_00012030-81
1 20520U 23631VC  26075.70005787  .00000000  00000+0  00000-0 0  9997
2 20520  54.0000 290.0000 0000000   0.0000  83.2222 14.93221018    12
E-SPACE_L_00012030-82
1 20521U 25224LY  26075.70005787  .00000000  00000+0  00000-0 0  9998
2 20521  54.0000 290.0000 0000000   0.0000  84.2222 14.93221018    14
E-SPACE_L_00012030-83
1 20522U 24734EZ  26075.70005787  .00000000  00000+0  00000-0 0  9994
2 20522  54.0000 290.0000 0000000   0.0000  85.2222 14.93221018    16
E-SPACE_L_00012030-84
1 20523U 25627YA  26075.70005787  .00000000  00000+0  00000-0 0  9997
2 20523  54.0000 290.0000 0000000   0.0000  86.2222 14.93221018    18
E-SPACE_L_00012030-85
1 20524U 25410PB  26075.70005787  .00000000  00000+0  00000-0 0  9998
2 20524  54.0000 290.0000 0000000   0.0000  87.2222 14.93221018    10
E-SPACE_L_00012030-86
1 20525U 23574ZG  26075.70005787  .00000000  00000+0  00000-0 0  9998
2 20525  54.0000 290.0000 0000000   0.0000  88.2222 14.93221018    12
E-SPACE_L_00012030-87
1 20526U 26420ZW  26075.70005787  .00000000  00000+0  00000-0 0  9992
2 20526  54.0000 290.0000 0000000   0.0000  89.2222 14.93221018    14
E-SPACE_L_00012030-88
1 20527U 24905QN  26075.70005787  .00000000  00000+0  00000-0 0  9999
2 20527  54.0000 290.0000 0000000   0.0000  90.2222 14.93221018    17
E-SPACE_L_00012030-89
1 20528U 26225UI  26075.70005787  .00000000  00000+0  00000-0 0  9997
2 20528  54.0000 290.0000 0000000   0.0000  91.2222 14.93221018    19
E-SPACE_L_00012030-90
1 20529U 25560YC  26075.70005787  .00000000  00000+0  00000-0 0  9999
2 20529  54.0000 290.0000 0000000   0.0000  92.2222 14.93221018    11
E-SPACE_L_00012030-91
1 20530U 26866O   26075.70005787  .00000000  00000+0  00000-0 0  9991
2 20530  54.0000 290.0000 0000000   0.0000  93.2222 14.93221018    14
E-SPACE_L_00012030-92
1 20531U 22578OH  26075.70005787  .00000000  00000+0  00000-0 0  9998
2 20531  54.0000 290.0000 0000000   0.0000  94.2222 14.93221018    16
E-SPACE_L_00012030-93
1 20532U 23201BZ  26075.70005787  .00000000  00000+0  00000-0 0  9993
2 20532  54.0000 290.0000 0000000   0.0000  95.2222 14.93221018    18
E-SPACE_L_00012030-94
1 20533U 25661DY  26075.70005787  .00000000  00000+0  00000-0 0  9996
2 20533  54.0000 290.0000 0000000   0.0000  96.2222 14.93221018    10
E-SPACE_L_00012030-95
1 20534U 23332MV  26075.70005787  .00000000  00000+0  00000-0 0  9990
2 20534  54.0000 290.0000 0000000   0.0000  97.2222 14.93221018    12
E-SPACE_L_00012030-96
1 20535U 23065XK  26075.70005787  .00000000  00000+0  00000-0 0  9994
2 20535  54.0000 290.0000 0000000   0.0000  98.2222 14.93221018    14
E-SPACE_L_00012030-97
1 20536U 26452N   26075.70005787  .00000000  00000+0  00000-0 0  9998
2 20536  54.0000 290.0000 0000000   0.0000  99.2222 14.93221018    16
E-SPACE_L_00012030-98
1 20537U 24496AC  26075.70005787  .00000000  00000+0  00000-0 0  9995
2 20537  54.0000 290.0000 0000000   0.0000 100.2222 14.93221018    10
E-SPACE_L_00012030-99
1 20538U 25406AD  26075.70005787  .00000000  00000+0  00000-0 0  9998
2 20538  54.0000 290.0000 0000000   0.0000 101.2222 14.93221018    12
E-SPACE_L_00012030-100
1 20539U 23417VB  26075.70005787  .00000000  00000+0  00000-0 0  9999
2 20539  54.0000 290.0000 0000000   0.0000 102.2222 14.93221018    14
E-SPACE_L_00012030-101
1 20540U 25514WK  26075.70005787  .00000000  00000+0  00000-0 0  9991
2 20540  54.0000 290.0000 0000000   0.0000 103.2222 14.93221018    17
E-SPACE_L_00012030-102
1 20541U 24295QA  26075.70005787  .00000000  00000+0  00000-0 0  9997
2 20541  54.0000 290.0000 0000000   0.0000 104.2222 14.93221018    19
E-SPACE_L_00012030-103
1 20542U 25171PR  26075.70005787  .00000000  00000+0  00000-0 0  9992
2 20542  54.0000 290.0000 0000000   0.0000 105.2222 14.93221018    11
E-SPACE_L_00012030-104
1 20543U 23299OS  26075.70005787  .00000000  00000+0  00000-0 0  9992
2 20543  54.0000 290.0000 0000000   0.0000 106.2222 14.93221018    13
E-SPACE_L_00012030-105
1 20544U 26251YD  26075.70005787  .00000000  00000+0  00000-0 0  9994
2 20544  54.0000 290.0000 0000000   0.0000 107.2222 14.93221018    15
E-SPACE_L_00012030-106
1 20545U 23044MH  26075.70005787  .00000000  00000+0  00000-0 0  9992
2 20545  54.0000 290.0000 0000000   0.0000 108.2222 14.93221018    17
E-SPACE_L_00012030-107
1 20546U 26454AI  26075.70005787  .00000000  00000+0  00000-0 0  9991
2 20546  54.0000 290.0000 0000000   0.0000 109.2222 14.93221018    19
E-SPACE_L_00012030-108
1 20547U 23215HW  26075.70005787  .00000000  00000+0  00000-0 0  9994
2 20547  54.0000 290.0000 0000000   0.0000 110.2222 14.93221018    12
E-SPACE_L_00012030-109
1 20548U 26259LE  26075.70005787  .00000000  00000+0  00000-0 0  9996
2 20548  54.0000 290.0000 0000000   0.0000 111.2222 14.93221018    14
E-SPACE_L_00012030-110
1 20549U 24347HZ  26075.70005787  .00000000  00000+0  00000-0 0  9993
2 20549  54.0000 290.0000 0000000   0.0000 112.2222 14.93221018    16
E-SPACE_L_00012030-111
1 20550U 26714XN  26075.70005787  .00000000  00000+0  00000-0 0  9995
2 20550  54.0000 290.0000 0000000   0.0000 113.2222 14.93221018    19
E-SPACE_L_00012030-112
1 20551U 25631WJ  26075.70005787  .00000000  00000+0  00000-0 0  9993
2 20551  54.0000 290.0000 0000000   0.0000 114.2222 14.93221018    11
E-SPACE_L_00012030-113
1 20552U 24809WD  26075.70005787  .00000000  00000+0  00000-0 0  9990
2 20552  54.0000 290.0000 0000000   0.0000 115.2222 14.93221018    13
